,Apartment name,Distance from  WSU (miles),Address,No. of avaliable unit sizes,furnished,Do sharing avaliable,Bills not included in the rent,Bills paid by the management,Amentities provided by the management,Required guarantor,Required SSN,Require security deposit,Documents required for application,Rental insurance required,free parking lot available,Minimum lease term availability in months,In unit washer or dyer,Pets allowed,location,LATITUDE,LONGITUDE
5,Aspen Heights,1,"4910 E 21st St, Wichita, KS 67208 ",https://docs.google.com/spreadsheets/d/1DRpTGPjpcmcBEo1XeHHic9MkyhlIJjxHmnjBg6NDqNQ/edit#gid=617532481&range=7:7,Yes,Yes,"Property Liability insurance, Garbage","Internet, Electricity(upto $30) , Water (upto $12)","
24-Hour Fitness Center,Resort Style Swimming Pool,Business Center,On-Site Maintenance,Fun Resident Events,
Convenient Bus Service,Individual & Group Study Rooms,Computer Lab w/ 24-hr Printing,Free Parking for Residents,Tanning Bed",No,No,No,"SSN or I-20 or DS-2019 from The US Department of Justice or The Department of Homeland Security.
If applying from outside the US, a valid F-1 or J-1 Visa is required.",No,Yes,12,Yes,Yes,"4910, East 21st Street North, Wichita, Sedgwick County, Kansas, 67208, United States",37.72302877777778,-97.27984588888889
6,Barclay Square Apartments,4.1,"550 W Central Ave Wichita, KS 67203",https://docs.google.com/spreadsheets/d/1DRpTGPjpcmcBEo1XeHHic9MkyhlIJjxHmnjBg6NDqNQ/edit#gid=617532481&range=8:8,Yes,Yes,"Electricity, water","wifi, gym, pool","Club House, Covered Parking, Laundry, Private Swimming Pool, 24 Hour Emergency Maintenance, All Electric, ",No,No,Yes,"i20,leasing history",No,Yes,6,Yes,Yes,"550, West Central Avenue, Wichita, Sedgwick County, Kansas, 67203, United States",37.69195495886315,-97.34644931248756
7,Bluestem Apartments,4.7,"3032 Arkansas Ave Wichita, KS 67204",https://docs.google.com/spreadsheets/d/1DRpTGPjpcmcBEo1XeHHic9MkyhlIJjxHmnjBg6NDqNQ/edit#gid=617532481&range=9:9,yes,yes,"water,electricity",,"range,refrigirator,carpet,storage space,floor tiles,smoke free,oven,high speed internet access",NO,YES,YES,"i20,leasing or bank statement",NO,YES,6,NO,YES,"3032, Arkansas Avenue, Wichita, Sedgwick County, Kansas, 67204, United States",37.73811555102041,-97.3447316122449
8,Bradford Glen  Apartments,3.3,"888 S Hydraulic Ave Wichita, KS 67211",https://docs.google.com/spreadsheets/d/1DRpTGPjpcmcBEo1XeHHic9MkyhlIJjxHmnjBg6NDqNQ/edit#gid=617532481&range=10:10,Yes,Yes,"Electricity, water","gym, pool","On-site Laundry, Refrigerator, Pool, On Bus Line, Dishwasher, Range / Oven, Microwave, Freezer, Cable-ready, High-speed Internet, Stove",No,No,YES,"Photo ID, I20",No,YES,9,NO,YES,"South Hydraulic Avenue, Wichita, Sedgwick County, Kansas, 67211, United States",37.660823,-97.317164
9,Brickstone at Woodlawn,1.2,"2323 N Woodlawn Blvd, Wichita, KS 67220",https://docs.google.com/spreadsheets/d/1DRpTGPjpcmcBEo1XeHHic9MkyhlIJjxHmnjBg6NDqNQ/edit#gid=617532481&range=11:11,Yes,Yes,"Electricity, Wifi, Water","Free wifi, pool access, gym, basketball
court","Refrigerator, Air conditioner, Dish washer, walk-in closets, dish washer, on-site property manager, Balcony, carpet, playing area, sitouts,
gym ,laundry, swimming pool, free wifi, microwave, stove",Yes,Yes,Yes,"Photo ID, Proof of Income",Yes,Yes,12,Yes,Yes,"2323, North Woodlawn Boulevard, Wichita, Sedgwick County, Kansas, 67220, United States",37.72557894545455,-97.26240785454546
10,Calvary Tower Apartments,1.8,"2600 N Grove St, Wichita, KS 67219","600 Square feet(Studio,1 bath)",Yes,Yes,"water,electricity,gas",Yes,"Laundry, courtyard, air conditioning, refrigerator, dishwasher, microwave, ceiling fans, garbage disposal, Oven",No,No,Yes,Yes,,,12,,,"2600, North Grove Street, Ridgecrest, Wichita, Sedgwick County, Kansas, 67219, United States",37.730128,-97.308055
11,Carter Apartments,4,"928 Carter St Wichita, KS 67203","400 Square feet(Studio,1 bath)",Yes,Yes,"water,electricity,gas",Yes,"Laundry facilities,Playground,Basketball court,Oven,Refrigerator,Internet,Air conditioner,Heating",No,No,Yes,Yes,,Yes,12,No,Yes,"928, Carter Street, Riverside, Wichita, Sedgwick County, Kansas, 67203, United States",37.69976985714286,-97.35006142857142
12,Central park Apartments,3.6,"1516 E 3rd St, Wichita, KS 67214","384 Sq ft(Studio,1 bath), 500 Sq ft(1 bed,1 bath)",Yes,Yes,"water electricty,gas",Yes,"Internet,Air conditioner,Range,Refrigerator,Smoke Free,Wheelchair Accessible",No,Yes,yes,Yes,,Yes,12,No,Yes,"East 3rd Street, Wichita, Sedgwick County, Kansas, 67230, United States",37.691551,-97.2
13,Central Park Village Apartments,2.4,"1520 E 17th St N, Wichita, KS 67214","612 SF(2 Bed,1 bath),1200 SF(3 Bed,1 Bath)",Yes,Yes,"Gas,electricity,water",Yes,"Internet,Air conditioner,Freezer,Refrigerator,Smoke Free,Wheelchair Accessible,Heating,Kitchen,Oven,Recreation room,Walk in closets",No,No,yes,Yes,,Yes,12,No,Yes,"1520, East 17th Street North, Wichita, Sedgwick County, Kansas, 67214, United States",37.71545160901314,-97.32016045162348
14,Chisholm Lake Apartments,3.2,"3450 N Ridgewood St, Wichita, KS 67220","730 SF(1 Bed,1 Bath),1010 SF(2 Bed,1 Bath),1138 SF(3 Bed,2 Bath)",Yes,Yes,"Water,Gas electricity",Yes,"Pet washing facility,Fitness Facility,Basketball Court,Clubhouse,Patio/Balcony,Refrigerator,Dishwasher,Microwave",no,Yes,yes,Yes,,Yes,12,Yes,Yes,"3450, North Ridgewood Street, Wichita, Sedgwick County, Kansas, 67220, United States",37.74798641608757,-97.27288035746159
15,Commodore Apartments,3.4,"222 E Elm St, Wichita, KS 67214","2 - (Bed: Studio, Both: 1,Sq. Ft: 300-637 and Bed: 1, Both: 1, Sq. Ft: 637)",Yes,Yes,Yes,Yes,"Off Street Parking, On-Site Maintenance, Online resident services, On-Site Management, Community Laundry, flexible security deposit program, Elevator, Renovated Units Available, Efficient Appliances, Large Closets, Cable Ready, Hardwood Floors, Refrigerator, Stove",No,Yes,Yes,Yes,No,Yes,12,No,Yes,"Commodore Apartments, 222, East Elm Street, Wichita, Sedgwick County, Kansas, 67214, United States",37.6949897,-97.33601142476655
16,Cross Creek Apartments,3.2,"7750 E 32nd St N, Wichita, KS 67226","5 - (1 Bed I 1 Bath I 720 Sq. Ft., 2 Beds I 1 Bath | 920 Sq. Ft., 2 Beds I 1.5 Baths | 960 Sq. Ft., 3 Beds | 1.5 Baths I 1,280 Sq. Ft., 3 Beds | 2 Baths | 1,060 Sq. Ft.)",Yes,Yes,Yes,Yes,"Well-Lit Walking Paths, Picnic Area with BBQ Grills, Fenced Dog Park, Convenient Location, On-Site Laundry Facility, Outdoor Basketball Court, Off~Street Parking, Online Rental Payments, Flex Rental Payments.",No,Yes,Yes,Yes,No,Yes,12,Yes,Yes,"7750, East 32nd Street North, Wichita, Sedgwick County, Kansas, 67226, United States",37.74286479118431,-97.24744077946235
17,Dwell Apartments,0.3,"1717 North Vassar Wichita, KS 67208","3 - (2 BR, 1BR, or Studio)",Yes,Yes,Yes,Yes,"Within walking distance to WSU campus, Click-Flooring Throughout, Carpet in Bedrooms, New Countertops and Fixtures, Fresh Paint and Shades Throughout, Laundry Room on site, WiFi Included",No,Yes,Yes,Yes,No,Yes,12,No,Yes,"1717, North Vassar, Fairmount, Wichita, Sedgwick County, Kansas, 67208, United States",37.71449930612245,-97.295438
18,East Hampton Estates Apartments,2.4,"2901 N Governeour St, Wichita, KS 67226","5 - (1 Bed, 1 Bath 3D Tour $840-$875 | 870 sq. ft., 2 Bed, 2 Bath Twin 3D Tour $1025-$1060 1,222 sq. ft., 2 Bed, 2 Bath Tur $1115-$1150 1,304 sq. ft., 2 Bed, 2 Bath Tur + Den 3D Tour $1305—$1340 1,619 sq. ft., 3 Bed, 2 Bath $1215-$1250 1,508 sq. ft.)",Yes,Yes,Yes,Yes,"Heated Outdoor Pool, Heated Indoor Pool, Exercise Room, Community Room, Playground, Sauna/Whirlpool, Tennis Courts, Elevators.",No,Yes,Yes,Yes,No,Yes,12,Yes,Yes,"2901, North Governeour Street, Wichita, Sedgwick County, Kansas, 67226, United States",37.734423207070705,-97.25363797979799
19,Eastwood Apartments,2.7,"4825 Eastwood St Wichita, KS 67218","2 - (1 Bedroom 1 Bath 640 SF, 2 Bedrooms 1 Bath 772 SF)",Yes,Yes,Yes,Yes,"Package Service, Maintenance on site, Public Transportation, Community Wide WiFi, Property Manager on Site, Courtyard, Laundry Facilities, 24 Hour Availability.",No,Yes,Yes,Yes,No,Yes,12,No,Yes,"East Eastwood Street, Wichita, Sedgwick County, Kansas, 67218, United States",37.676259,-97.279525
20,Eaton place,4.5,"517 E Douglas Ave Wichita, KS 67202","1,052 SF(1 Bed,1 bath), 904 SF(1 Bed,1 bath)",Yes,No,Yes,No,"Fitness Center, Laundry Facility, Pool, Clubhouse, Washer/Dryer Hookup, High Speed Internet Access, Patio/Balcony, Walk-In Closets",No,No,Yes,Yes,No,Yes,12,No,No,"517, East Douglas Avenue, Wichita, Sedgwick County, Kansas, 67202, United States",37.68596465306123,-97.33262755102041
21,Granada Apartments,0.2,"1702 Fairmount St, Wichita, KS 67208","810 SF(1 Bed,1 bath), 848 SF(1 Bed,1 bath)",Yes,Yes,Yes,No,"Walk Out Basement,Stove,Refrigerator,Dishwasher,Trash paid,Water paid,WIFI,Electric Paid,Fully Furnished",No,No,Yes,Yes,No,Yes,12,No,No,"1702, Fairmount Street, Fairmount, Wichita, Sedgwick County, Kansas, 67208, United States",37.713855571428574,-97.29665778571427
22,Grandview Apartments,0.038447,"1748 N Hillside St, Wichita, KS 67214","775 SF(2 Bed,1 bath)",Yes,Yes,No,No,"High-Speed Wifi included in rent!, Energy Efficient Windows, Gated Access, On-site Laundry/Storage, Fitness Room, Outdoor Patio Area",No,No,Yes,Yes,No,Yes,12,No,Yes,"1748, North Hillside Street, Wichita, Sedgwick County, Kansas, 67214, United States",37.71460324793204,-97.29894267391681
23,Highland House,1.9,"1400 N Woodlawn Blvd, Wichita, KS 67208","500 SF(1 Bed,1 bath), 680 SF(1 Bed,1 bath), 822 SF(1 Bed,1 bath), 1020 SF(2 Bed,1 bath), 1466 SF(3 Bed,2 bath)",Yes,No,Yes,No,"Cox High Speed Internet,24-Hour Availability,Laundry Facilities,On-site Management,Clubhouse,Fitness Center,On-site Maintenance,Off Street Parking,Recycling,Controlled Access,Elevator",No,Yes,Yes,Yes,Yes,Yes,12,Yes,Yes,"1400, North Woodlawn Boulevard, Wichita, Sedgwick County, Kansas, 67208, United States",37.708543,-97.262169
24,Highland Square Apartments,1.7,"1322 N Woodlawn Blvd, Wichita, KS 67208","595 SF(1 Bed,1 bath), 750 SF(2 Bed,1 bath)",Yes,No,Yes,No,"Grill And Picnic Area, 24/7 Emergency Maintenance, Walk To Pharmacy, Shopping And Banking, Ample Off-Street Parking, Laundry Facility Available 24/7, Secured Entry Doors To Apartment Buildings",No,Yes,Yes,Yes,Yes,Yes,12,Yes,Yes,"1322, North Woodlawn Boulevard, Wichita, Sedgwick County, Kansas, 67208, United States",37.70692257142857,-97.26215459183673
25,Hillcreast,3.2,"115 S Rutan St, Wichita, KS 67218","3-(1 bed 1 bath 974sq ft), (2 bed 2 bath1436sq ft),(3 bed 2 both 1381sq ft)",No,Yes,Yes,No,"Security System,Fitness Center,Multi Use Room, Courtyard",No,Yes,Yes,"Proof of income,SSN, Previous renter history",Yes,Yes,12,Yes,Yes,"115, South Rutan Street, Wichita, Sedgwick County, Kansas, 67218, United States",37.68578188888889,-97.29674377777778
26,Horizon east,4.7,"505 N Rock Rd, Wichita, KS 67206","4-(1 bed 1 bath 837sq ft), (2 bed 1 bath 963sq ft), (2 bed 1.5 bath 1130sq ft),(2 bed 2 bath 1194sq ft)",No,Yes,Yes,No,"Package Service, Property Manager on Site, Pool, Laundry Facilities, Clubhouse, Sundeck, Maintenance on site, Storage Space",No,Yes,Yes,"Proof of income,SSN, Previous renter history",Yes,Yes,12,Yes,Yes,"505, North Rock Road, Forest Hills, Minneha, Wichita, Sedgwick County, Kansas, 67206, United States",37.694032232622874,-97.24464049170918
27,innes station,3.8,"701 E 1st St N, Wichita, KS 67202","3-(1 bed, 1 bath, 730 – 1,300 sq ft), (2 bed, 1 bath 960- 1,800 sq ft), (2 bed, 2 bath, 1,800 sq ft)",No,Yes,Yes,No,"Laundry Facilities, Multi Use Room, Picnic Area, Controlled Access, Tanning Salon, Elevator, Grill",No,Yes,Yes,"Proof of income,SSN, Previous renter history",Yes,Yes,9,Yes,Yes,"701, East 1st Street North, Wichita, Sedgwick County, Kansas, 67202, United States",37.688048020833335,-97.32948883333333
28,Inter Faith Villas,4.3,"930 N Market St, Wichita, KS 67214","3-(1 bed 1 bath 482sq ft), (2 bed 1 bath 758sq ft), (3 bed 1 bath 998sq ft)",No,Yes,Yes,No,"Laundry Facilities, Clubhouse, Grill, Maintenance on site, Playground, Picnic Area, Property Manager on Site, Fenced Lot, Trash Pickup - Curbside, Courtyard",No,Yes,Yes,"Proof of income,SSN, Previous renter history",Yes,Yes,12,Yes,Yes,"930, North Market Street, Wichita, Sedgwick County, Kansas, 67214, United States",37.699365428571426,-97.33677977551021
29,inwood Crossing Apartments,4.7,"3540 N Inwood St, Wichita, KS 67226","3-( 1bed 1 bath 661sq ft), (2 bed 2 bath 923sq ft), (3 bed 2 bath 1105sq ft)",No,Yes,Yes,No,"Relaxing Lounge Pool with Sundeck, Picnic Areas with Barbecues, Theater Room, Dog Park, Fitness Center, Garages and Covered Parking Available, Business Center, Cable Available, Clubhouse, Easy Access to Freeways and Shopping, Energizing Fitness Center, Gated Community, Online Resident Portal, Outdoor Space, Pet Friendly, Pet Waste Stations, Playground Area, Public Parks Nearby, Some Paid Utilities",No,Yes,Yes,"Proof of income,SSN, Previous renter history",Yes,Yes,12,Yes,Yes,"3540, North Inwood Street, Wichita, Sedgwick County, Kansas, 67226, United States",37.74669892124202,-97.25136131517502
35,Market Square Apartments,3.2,"1030 N Market St, Wichita, KS 67214","1-(2 bed 2 bath 1046 -1210 sq ft), 1- ( 2 bed 2 bath 928-1040 sq ft) , 1 -( 1 bed 1 bath 728-923 sq ft)",No,Yes,Yes,Yes,"Laundry facilities, club house, fitness center, maintenance on site, dishwasher, disposal, refrigerator, oven",No,Yes,Yes,Yes,Yes,Yes,12,Yes,Yes,"1030, North Market Street, Wichita, Sedgwick County, Kansas, 67214, United States",37.70102736734694,-97.3367741632653
36,Market Street lofts,2.2,"206 E 18th St N, Wichita, KS 67214", Zero Avaliable,No,Yes,Yes,Yes,"ceiling fans, smoke free, air conditioning, heating, cable ready, dishwasher, oven, freezer, ice maker, disposal, oven, handrails",No,Yes,Yes,Yes,Yes,Yes,12,Yes,Yes,"206, East 18th Street North, Fairview, Wichita, Sedgwick County, Kansas, 67214, United States",37.71721706122449,-97.3365892244898
37,Meadowlark Apartments,3.8,"2701 E Harry St, Wichita, KS 67211","1- (2 bed 1 bath 850 sq ft ), 1 -(2 bed 1 bath 950 sq ft )",No,Yes,Yes,Yes,"high speed internet access, ceiling fans, dishwasher, cable ready, storage unit, oven, microwave, washer/dryer hookups, microwave",No,Yes,Yes,Yes,Yes,Yes,12,Yes,Yes,"2701, East Harry Street, Mead Neighborhood, Wichita, Sedgwick County, Kansas, 67211, United States",37.664454,-97.304827
38,megreb,2.9,"6545 E 34th St N, Wichita, KS 67226","2-(1 bed,1 bath-640 sq ft),(2 bed,1 bath-772 sq ft)",No,Yes,Yes,No,"Laundry, courtyard, air conditioning, refrigerator, dishwasher, microwave, ceiling fans, garbage disposal, Oven",No,Yes,Yes,Yes,Yes,Yes,12,Yes,Yes,"6545, East 34th Street North, Wichita, Sedgwick County, Kansas, 67226, United States",37.74733109008022,-97.26114030218741
39,Merina Point Apartments,3.9,"1985 N Amidon Ave Wichita, KS 67203",3-( 2 bed 2 bath 1104 sq ft) 3-( 1 bed 1 bath 741 sq ft ),No,Yes,Yes,Yes,"""Pet friendly (cats and small/medium dogs allowed), Gated secure community, Dedicated private parking,Security cameras,Lounge pool,Sand Volleyball Court,High Speed WiFi,Roommate matching,Outdoor grill station
""",No,Yes,Yes,Yes,Yes,Yes,6,Yes,Yes,"1985, North Amidon Avenue, Wichita, Sedgwick County, Kansas, 67203, United States",37.71965658258421,-97.36315900229539
40,Midtown Place Apartments,3.5," 900 N Waco Ave  B-, Wichita, KS 67203","682sqft (1 Bed, 1 Bath w/Loft), 518sqft (1 Bed, 1 Bath w/ Fireplace & Balcony)",No,Yes,Yes,Yes,"Locked entry/intercom, Well-lit door side parking, Private pool, Wood-burning fireplaces, Fully-equipped kitchens, Central heat and air, Private balconies, Washer/dryer hookups in select units, On-site laundry facilities",No,Yes,Yes,Yes,No,Yes,12,Yes,Yes,"Wichita, Sedgwick County, Kansas, United States",37.6922361,-97.3375448
41,Mullen Court Apartments,2.7,"1150 S Topeka St, Wichita, KS",1Bed 1Bath | $400-$415 | 600 sq ft,No,Yes,Yes,Yes,"Laundry, courtyard, air conditioning, refrigerator, dishwasher, microwave, ceiling fans, garbage disposal, Oven",No,Yes,Yes,Yes,No,Yes,12,Yes,No,"1150, South Topeka Street, Wichita, Sedgwick County, Kansas, 67211, United States",37.67240469387755,-97.33412044897959
42,North Park Residencies,2.8,"2801 N Rock Rd, Wichita, KS",1 Bed1 Bath $680 |633 sqft| 1 Bed1 Bath $720| 710 sqft | 2 Beds2 Baths $825| 862 sqft ,No,Yes,Yes,Yes,"Air conditioning, balcony, deck, dishwasher, garbage disposal, refrigerator, microwave, oven, fireplace, storage, storm shelter, pool, gazebos",No,Yes,Yes,Yes,No,Yes,6,yes,Yes,"2801, North Rock Road, Wichita, Sedgwick County, Kansas, 67226, United States",37.734377,-97.244746
43,Parc at 21st & Rock,1.8,"7677 E 21st N Wichita, KS","1Bed1 Bath $739 - $829 | 626sqft | 2 Bed 2 Bath $$ 1,177   |966 sqft",No,Yes,Yes,Yes,"Oven,Dishwasher,Refrigerator, Airconditioner,Carpets,Playground, Outdoor Picinic Area,Outdoor Picnic Area,24-Hour Emergency Maintenance,Fitness Center,Fitness Center.",No,No,Yes,Yes,Yes,Yes,3,No,Yes,"7677, East 21st Street North, Minneha, Wichita, Sedgwick County, Kansas, 67206, United States",37.722924,-97.24879581632653
44,Parklane Garden Apartments,3.4,"959 S Bleckley Dr, Wichita, KS","2 Beds, 1.5 Bath $760–$875 · 950-1040 sqft | 4 Available",No,Yes,Yes,Yes,"Laundry Facilities, Clubhouse, Pool, Playground, Courtyard, oven, Dishwasher, Air Conditioning, Garbage disposal, refrigerator, microwave",No,Yes,Yes,Yes,No,Yes,6,Yes,Yes,"959, South Bleckley Drive, Wichita, Sedgwick County, Kansas, 67218, United States",37.670873365081626,-97.27708307569067
45,Parkwood Apartments,4.1,"5323 E Harry St, Wichita, KS 67218","1Beds,1Bath $500|2 Bed,2 Bath $575|3 Bed,3 Bath $600",no,,,,,,,,,,,,,,"5323, East Harry Street, Wichita, Sedgwick County, Kansas, 67218, United States",37.664586,-97.27338444827586
46,Pinecrest Village,3.8,"1537 S Battin St, Wichita, KS 67218","1Bed,1Bath - $449 -475sqft| 2 Bed,1Bath $ -$499-618sqft",no,yes,yes,no,"On-site laundry facility,airconditoner,microvave,Private front and back entries,Playground,Handicapped accessible units available
",no,yes,yes,yes,yes,yes,yes,yes,yes,"1537, South Battin Street, Wichita, Sedgwick County, Kansas, 67218, United States",37.6656500437548,-97.27744062865348
49,Plaza Nine,2.2,"3700 E Douglas Ave #, Wichita, KS 67208",,No,Yes,Yes,No,,No,Yes,Yes,Yes,Yes,Yes,6,No,Yes,"Flavors Coffee and Ice Cream Bar, 3700, East Douglas Avenue, Wichita, Sedgwick County, Kansas, 67208, United States",37.6867293,-97.2937148
50,Ponderosa Apartments,2.5,"5900 E Mainsgate Rd, Wichita, KS 67220","5-(1 bed,1 bath-600 sq ft),(1 bed,1 bath studio style- 698 sq ft),(1 bed, 1 bath with Den- 835 sq ft),(2 Bed 2 Bath-984 sq ft),(2 bed ,1.5 bath-850 sq ft",No,Yes,Yes,Yes,"24-Hour Emergency Maintenance,BBQ and Picnic Area,Balcony or Patio,Carpet,Contemporary Color Schemes,Flexible Monthly Rent Payments with FlexRent,Fully-equipped Kitchen,Natural Lighting",No,Yes,Yes,Yes,No,Yes,6,No,Yes,"5900, East Mainsgate Road, Wichita, Sedgwick County, Kansas, 67220, United States",37.72925497419727,-97.26650768702174
51,Regal plaza and cottages,1.9,"2500 E 27th St N, Wichita, KS 67219","1-1bed,1 bath-600 Sq ft",No,Yes,Yes,Yes,"High Speed,Internet Access,Wi-Fi,Air Conditioning,HeatingSmoke,FreeCable,ReadySecurity,SystemTub/ShowerWheelchair,Accessible(Rooms),Kitchen FeaturesAppliancesDishwasherDisposalMicrowaveOvenRangeRefrigeratorFreezer",No,Yes,Yes,Yes,No,Yes,12,No,Yes,"2500, East 27th Street North, Wichita, Sedgwick County, Kansas, 67219, United States",37.733821,-97.306754
52,Renata view,2.3," 333 W 21st St #, Wichita, KS 67203","1-1bed,1bath studio-400 sq ft",No,Yes,Yes,No,"Ceiling Fan,Dishwasher,Oven,Range,Refrigerator,Garbage Disposal",No,Yes,Yes,Yes,Yes,Yes,12,No,Yes,"333, West 21st Street North, Wichita, Sedgwick County, Kansas, 67203, United States",37.722502,-97.34100832653061
53,Rockborough Apartments,5.1,"202 N Rock Rd, Wichita, KS 67206","3-(1 bed,1bath-625 sq ft),(2 bed,1 bath-865sq ft),(2 bed town house-1845 sq ft)",No,Yes,Yes,Yes,"Package Service,Wi-Fi at Pool and Clubhouse,Laundry Facilities,Maintenance on site,Property Manager on Site,Online ServicesGuest, ApartmentPet Play, AreaPublic Transportation,Business Center,ClubhouseLounge,Fitness Center,Sauna",No,Yes,Yes,Yes,No,Yes,12,No,Yes,"Rockborough Apartments, 202, North Rock Road, Forest Hills, Wichita, Sedgwick County, Kansas, 67207, United States",37.6889439,-97.24226784390558
54,Sandstone Apartments,4,"4825 Eastwood St, Wichita, KS 67218","2-(1 bed,1 bath-640 sq ft),(2 bed,1 bath-772 sq ft)",No,Yes,Yes,Yes,"Package Service,Community-Wide, WiFi,Laundry Facilities,Maintenance on siteProperty, Manager on Site,24 Hour Availability,Public Transportation,Courtyard",No,Yes,Yes,Yes,No,Yes,12,Yes,Yes,"East Eastwood Street, Wichita, Sedgwick County, Kansas, 67218, United States",37.676259,-97.279525
55,Seventeenth Apartments,0.5,"3607 E 17th St N, Wichita, KS 67208","7-(1Bed1Bath437sqft),(2bed1bath807sqft),(2bed2bath1045sqft),(3bed3baths1082sqft),(4bed2baths1203sqft),(4bed4baths1156sqft)(Studio1bath380sqft)",Yes,Yes,Yes,Yes,"Pet friendly (cats and small/medium dogs allowed), Gated secure community, Dedicated private parking,Security cameras,Lounge pool,Sand Volleyball Court,High Speed WiFi,Roommate matching,Outdoor grill station
",No,No,Yes,Yes,Yes,Yes,12,Yes,Yes,"3607, East 17th Street North, Wichita, Sedgwick County, Kansas, 67208, United States",37.715462306122454,-97.2938557755102
56,shadybrook,0.2,"4925 E Shadybrook St, Wichita, KS 67208","3-(1Bed671sqft),(2Bed905sqft),(3Bed1100sqft)",Yes,Yes,Yes,Yes,"24/7 AvailabilityAirConditioner, AllowedCommunity RoomDogs AllowedElevator,Garbage Disposal,Laundry,Off Street Parking Lot,CoordinatorUtilities",No,No,Yes,Yes,Yes,Yes,12,No,Yes,"East Shadybrook Street, Wichita, Sedgwick County, Kansas, 67220, United States",37.721521,-97.263588
57,Shirkmere Apartments,5.1,"256 S Topeka St, Wichita, KS 67202","4-(Studio506sqft),(1Bed1bath775sqft),(2Bed1.5Bath1048sqft),(2Bed2Bath1062sqft),(3Bed2Bath1633sqft)",No,Yes,Yes,Yes,"High speed Internet, Pet friendly, Parking, Electricity, Water, Gas, Trash removal, Sewer, AC,heat",No,No,Yes,Yes,No,Yes,12,No,Yes,"256, South Topeka Street, Wichita, Sedgwick County, Kansas, 67202, United States",37.68427128571429,-97.33416042857144
58,Somorset Apartments,1.2,"2029 N Woodlawn St, Wichita, KS 67208","2-(1Bed1Bath672sqft),(2Bed1Bath912sqft)",No,Yes,Yes,Yes,"Laundry facilities, Club house, Lounge, Fitness center,High Speed Internet Access, Air Conditioning,Smoke Free,Kitchen,Refrigerator",No,Yes,Yes,Yes,Yes,Yes,12,No,Yes,"North Woodlawn Street, Arthur Heights, Bel Aire, Sedgwick County, Kansas, 67220, United States",37.764142,-97.262471
59,Stratford East Apartments,3.9,"7826 E Douglas Ave Wichita, KS 67206","2-(1Bed1Bath695sqft),(2Bed1.5Bath930sqft)",Yes,Yes,Yes,Yes,"Fireplace, Microwave, Vinyl Flooring, Wheel chair accessible, Dishwasher,Grill, Club house, Pool, Courtyard,",No,No,Yes,Yes,Yes,Yes,12,Yes,Yes,"7826, East Douglas Avenue, Towne East Square, Forest Hills, Wichita, Sedgwick County, Kansas, 67206, United States",37.686625873886186,-97.24621364565756
65,The Landing at woodlawn Tower,1.2,"2029 N Woodlawn St, Wichita, KS 67208","2-(1Bed1Bath672sqft),(2Bed1Bath912sqft)",Yes,Yes,Yes,Yes,"Package Service, Laundry Facilities, Pet Play Area, Clubhouse, Storage Space, Fitness Center, Pool, Grill, Picnic Area, Study Lounge",No,No,Yes,Yes,Yes,Yes,12,No,Yes,"North Woodlawn Street, Arthur Heights, Bel Aire, Sedgwick County, Kansas, 67220, United States",37.764142,-97.262471
66,"The Lofts at Old Town Square,",3.2,"331 N Rock Island Wichita, KS 67202",https://docs.google.com/spreadsheets/d/1DRpTGPjpcmcBEo1XeHHic9MkyhlIJjxHmnjBg6NDqNQ/edit#gid=617532481,Yes,Yes,yes,No,"Balcony or Patio, Cable Ready, Ceiling Fans, Central Air and Heating, Dishwasher, Garbage Disposal, Microwave, Range or Oven, Refrigirator, Vaulted Cielings",Yes,Yes,Yes,"Previous rental history,Photo id",no,Yes,6,Yes,Yes,"331, North Rock Island, Wichita, Sedgwick County, Kansas, 67202, United States",37.69042693877551,-97.32831665306122
67,The Remington,5.3,"612 E Douglas Ave Wichita, KS 67202",https://docs.google.com/spreadsheets/d/1DRpTGPjpcmcBEo1XeHHic9MkyhlIJjxHmnjBg6NDqNQ/edit#gid=617532481,No,Yes,no,no,"Laundry,Wifi,Air conditioning,cable",no,no,yes,"Previous rental history,Photo id",yes,yes,6,no,yes,"The Renfro, 612, East Douglas Avenue, Wichita, Sedgwick County, Kansas, 67202, United States",37.68638205,-97.3310846
68,The Renfro,4.4,"612 E Douglas Ave Wichita, KS 67202","5-(Studio 352 sqft), (Studio 779 sqft),(1 Bed 1 Bath 549 sqft),(1 Bed 1.5 Bath 986 sqft),(2 Bed 1 Bath 736 sqft)",yes,yes,yes,No,"laundry facilities, fitness center, high speed internet access,wifi,air conditioning,cable ready",NO,NO,yes,Proof of income,yes,yes,12,no,yes,"The Renfro, 612, East Douglas Avenue, Wichita, Sedgwick County, Kansas, 67202, United States",37.68638205,-97.3310846
69,The suites at wsu,0.5,"2011 Innovation Blvd, Wichita, KS 67208",https://docs.google.com/spreadsheets/d/1DRpTGPjpcmcBEo1XeHHic9MkyhlIJjxHmnjBg6NDqNQ/edit#gid=617532481,Yes,Yes,no,no,"Main Lobby, Clubhouse, Media Room, Study Spaces, ",no,,,,no,yes,,yes,yes,"Innovation Boulevard, Wichita, Sedgwick County, Kansas, 67260, United States",37.7161156,-97.2846745
70,The Timber Apartments,1.4,"2021 N Old manor rd, Wichita, KS 67208","2-(1 bed 1 bath 650sqft),(2 bed 1 bath 900sqft)",no,yes,yes,no,"laundry facilities,clubhouse,wheelchair accesible,gated,",no,no,yes,"proof of income,previous rental history",yes,yes,2,yes,yes,"2021, North Old Manor Road, Crestview Heights, Wichita, Sedgwick County, Kansas, 67208, United States",37.71990921952765,-97.27344988806516
72,Twin Rivers Apartmens,3.1,"2303 Somerset St, Wichita, KS 67204","5-(1 bed,1 bath - 890 sq ft) , (2 bed, 1 bath - 1253 sq ft) , (2 bed,1.5 bath- 1253 sq ft) , (2 bed, 2 bath- 1253 sq ft) , (3 bed, 2.5 bath - 1253 sq ft)",No,Yes,Yes,Yes,"Pool, Fitness center, laundry facilities, Elevator, Clubhouse, Grill, Gated, tennis court, Boat docks, Courtyard ",No ,No,Yes,"Photo ID, 30 days proof of income",Yes,No,6,No,Yes,"2303, Somerset Street, Wichita, Sedgwick County, Kansas, 67204, United States",37.724085,-97.356209
73,University Court Apartments,0.001,"3607 E 17th St N, Wichita, KS 67208","2- (1 bed,1 bath -600 sq ft) , (2 bed, 1 bath - 763 sq ft)",Yes,No,No,Yes,"Wi-Fi, Swimming pool, Grillareas, Dogpark, Firepits, Sand volleyball",No ,No,Yes,"Photo ID, Proof of income, Previously Application",No,No,6,Yes,Yes,"3607, East 17th Street North, Wichita, Sedgwick County, Kansas, 67208, United States",37.715462306122454,-97.2938557755102
74,Uptown Landing,2.5,"3252 E Douglas Ave Wichita, KS 67208","4-(1 bed, 1bath- 807 sq ft), (2 bed, 1 bath- 1285 sq ft), (2 bed, 2 bath- 1510 sq ft), (3 bed, 2 bath- 1965 sq ft)",No,Yes,Yes,No,"Heated pool, Pickleball courts, Clubhouse, Gym, Rooftop sunset terrace, Carports & garages, ",No ,No,Yes,"Proof of income, Photo ID, Previous renter history ",,Yes,6,Yes,Yes,"3252, East Douglas Avenue, Wichita, Sedgwick County, Kansas, 67208, United States",37.686405042019786,-97.29774549924281
75,Urban Apartments in College Hills,2.8,"3815 E English St, Wichita, KS 67218",We were unable to reach them. They were not picking the call and they don't have an office to go in person too.,,,,,,,,,,,,,,,"3815, East English Street, Merriman Park, Wichita, Sedgwick County, Kansas, 67218, United States",37.684760038515236,-97.29176475802771
76,Vassar Flats,0.3,"1711 North Vassar, Wichita, KS 67208","5 - (1 bed,1 bath studio style- 472 sq ft), (1 bed,1 bath studio style-449 sq ft), (1 bed,1 bath studio style-536 sq ft), (1 bed,1 bath studio style- 539 sq ft), (1 bed,1 bath studio style- 555 sq ft)",No,No,Yes,No,"Wi-Fi, Pickle Ball Court, Resident lounge with complimentary coffee bar",No,Yes,Yes,Yes,No,Yes,6,Yes,Yes,"1711, North Vassar, Fairmount, Wichita, Sedgwick County, Kansas, 67208, United States",37.714492816326526,-97.295438
